     3.04           N: GNSS NAV DATA    M: MIXED            RINEX VERSION / TYPE
sbf2rin-15.6.1                          20230720 003501 UTC PGM / RUN BY / DATE 
GPSA   1.8626E-08  1.4901E-08 -1.1921E-07 -5.9605E-08       IONOSPHERIC CORR    
GPSB   1.2902E+05  1.4746E+05 -1.9661E+05 -1.3107E+05       IONOSPHERIC CORR    
GAL    1.7600E+02  3.5547E-01  1.2695E-02  0.0000E+00       IONOSPHERIC CORR    
GPUT -9.3132257462E-10 3.552713679E-15 503808 2271          TIME SYSTEM CORR    
GAUT -1.8626451492E-09 8.881784197E-16 259200 2271          TIME SYSTEM CORR    
GAGP -8.1490725279E-10-1.021405183E-14 345600 2271          TIME SYSTEM CORR    
    18                                                      LEAP SECONDS        
                                                            END OF HEADER       
E14 2023 07 19 14 50 00 2.867332077585E-04 1.087130385713E-11 0.000000000000E+00
     9.000000000000E+00 2.977500000000E+02 4.371610666560E-09 3.006238326350E+00
     1.285038888454E-05 1.613430598518E-01 1.470744609833E-05 5.289383981705E+03
     3.126000000000E+05-1.031905412674E-06 3.838099496478E-01 1.454725861549E-06
     8.729627927586E-01-1.759375000000E+01 2.433505348260E+00-4.937348517527E-09
     1.096474243982E-10 2.580000000000E+02 2.271000000000E+03
     3.120000000000E+00 1.600000000000E+01-3.492459654808E-09 0.000000000000E+00
     3.133400000000E+05
E15 2023 07 19 14 50 00-3.832986112684E-05-2.998490344908E-12 0.000000000000E+00
     9.000000000000E+00 1.519375000000E+02 2.789759061806E-09-9.446124255734E-01
     7.024034857750E-06 6.385101005435E-05 2.942979335785E-06 5.440603998184E+03
     3.126000000000E+05-3.166496753693E-08 1.342907609264E+00-1.117587089539E-07
     9.993562947210E-01 2.963750000000E+02 1.282937912931E+00-5.598804641258E-09
     3.132273328900E-10 2.580000000000E+02 2.271000000000E+03
     3.120000000000E+00 0.000000000000E+00 6.752088665962E-09 0.000000000000E+00
     3.133400000000E+05
E21 2023 07 19 14 50 00-5.416329368018E-04-2.231104190287E-12 0.000000000000E+00
     9.000000000000E+00-3.284375000000E+01 3.226562970727E-09 2.836945758201E+00
    -1.663342118263E-06 1.396266743541E-04 5.830079317093E-06 5.440604108810E+03
     3.126000000000E+05-9.313225746155E-09-7.451578718221E-01-2.607703208923E-08
     9.686159941955E-01 2.200312500000E+02-2.014184898200E+00-5.557731501825E-09
    -3.707297280955E-10 2.580000000000E+02 2.271000000000E+03
     3.120000000000E+00 0.000000000000E+00 2.793967723846E-09 0.000000000000E+00
     3.133400000000E+05
E19 2023 07 19 14 50 00-2.041418745648E-03 8.500933290634E-11 0.000000000000E+00
     9.000000000000E+00-1.119687500000E+02 2.710112887080E-09-2.660803188790E+00
    -5.474314093590E-06 2.344371750951E-04 1.181103289127E-05 5.440629634857E+03
     3.126000000000E+05 4.842877388000E-08-2.840051087093E+00 1.862645149231E-09
     9.650658489692E-01 9.278125000000E+01-1.385413643491E+00-5.266290790721E-09
    -7.500312418118E-12 2.580000000000E+02 2.271000000000E+03
     3.120000000000E+00 0.000000000000E+00-3.259629011154E-09 0.000000000000E+00
     3.133600000000E+05
E07 2023 07 19 15 00 00-6.109284004197E-05-2.813749233610E-12 0.000000000000E+00
     1.000000000000E+01-1.278750000000E+02 2.836903882719E-09-1.874481425230E+00
    -5.830079317093E-06 3.107649972662E-04 1.074001193047E-05 5.440625185013E+03
     3.132000000000E+05-5.587935447693E-09-2.843724538759E+00 4.842877388000E-08
     9.594816185578E-01 1.096562500000E+02-6.150690680498E-01-5.309864034293E-09
     8.107480566251E-11 5.170000000000E+02 2.271000000000E+03
     3.120000000000E+00 0.000000000000E+00 5.355104804039E-09 5.820766091347E-09
     3.138650000000E+05
E13 2023 07 19 15 00 00-1.932843588293E-05 0.000000000000E+00 0.000000000000E+00
     1.000000000000E+01 1.465625000000E+02 2.800116636097E-09-1.718910137747E+00
     6.943941116333E-06 1.246912870556E-04 3.110617399216E-06 5.440604099274E+03
     3.132000000000E+05-5.215406417847E-08 1.342963042156E+00-7.450580596924E-09
     9.993994273976E-01 2.946250000000E+02 1.336772344425E+00-5.525587305748E-09
     3.500145795122E-10 5.170000000000E+02 2.271000000000E+03
     3.120000000000E+00 0.000000000000E+00 5.587935447693E-09 5.820766091347E-09
     3.138650000000E+05
E08 2023 07 19 15 00 00-1.168749295175E-04-5.940137270954E-12 0.000000000000E+00
     1.000000000000E+01-1.350937500000E+02 2.651539018672E-09-1.528427363603E+00
    -6.159767508507E-06 2.890003379434E-04 1.131184399128E-05 5.440627311707E+03
     3.132000000000E+05-2.607703208923E-08-2.845206689822E+00-4.284083843231E-08
     9.653463035312E-01 1.037812500000E+02-1.651661458444E-01-5.210217026452E-09
     3.392998474863E-11 5.170000000000E+02 2.271000000000E+03
     3.120000000000E+00 0.000000000000E+00-3.492459654808E-09-3.958120942116E-09
     3.138650000000E+05
E14 2023 07 19 15 00 00 2.867386210710E-04 1.087130385713E-11 0.000000000000E+00
     1.000000000000E+01 3.041250000000E+02 4.684123683982E-09 3.087188014664E+00
     1.327507197857E-05 1.613430865109E-01 1.487880945206E-05 5.289384462357E+03
     3.132000000000E+05-1.342967152596E-06 3.838102788044E-01 2.117827534676E-06
     8.729608236709E-01-1.993750000000E+01 2.433503883879E+00-5.384867158474E-09
    -3.928735076157E-12 5.170000000000E+02 2.271000000000E+03
     3.120000000000E+00 1.300000000000E+02-3.492459654808E-09-4.423782229424E-09
     3.138650000000E+05
E15 2023 07 19 15 00 00-3.833166556433E-05-3.012701199623E-12 0.000000000000E+00
     1.000000000000E+01 1.536562500000E+02 2.784758853527E-09-8.691347735577E-01
     7.089227437973E-06 6.406800821424E-05 2.969056367874E-06 5.440604450226E+03
     3.132000000000E+05-1.490116119385E-08 1.342904219682E+00-1.154839992523E-07
     9.993564161432E-01 2.956875000000E+02 1.281846001117E+00-5.605947795942E-09
     3.221562762449E-10 5.170000000000E+02 2.271000000000E+03
     3.120000000000E+00 0.000000000000E+00 6.752088665962E-09 7.450580596924E-09
     3.138650000000E+05
E21 2023 07 19 15 00 00-5.416346830316E-04-2.245315045002E-12 0.000000000000E+00
     1.000000000000E+01-3.303125000000E+01 3.225134339791E-09 2.911081845581E+00
    -1.678243279457E-06 1.397312153131E-04 5.772337317467E-06 5.440603887558E+03
     3.132000000000E+05-1.117587089539E-08-7.451612014236E-01-2.793967723846E-08
     9.686157776836E-01 2.208750000000E+02-2.013935243915E+00-5.557374344091E-09
    -3.718012012981E-10 5.170000000000E+02 2.271000000000E+03
     3.120000000000E+00 0.000000000000E+00 2.793967723846E-09 2.793967723846E-09
     3.138650000000E+05
E19 2023 07 19 15 00 00-2.041368396021E-03 8.499512205162E-11 0.000000000000E+00
     1.000000000000E+01-1.133125000000E+02 2.710827202548E-09-2.585151177420E+00
    -5.554407835007E-06 2.342902589589E-04 1.167878508568E-05 5.440630294800E+03
     3.132000000000E+05 4.470348358154E-08-2.840054226515E+00 5.587935447693E-09
     9.650658314141E-01 9.503125000000E+01-1.386681011847E+00-5.269505210329E-09
    -7.857470152314E-12 5.170000000000E+02 2.271000000000E+03
     3.120000000000E+00 0.000000000000E+00-3.259629011154E-09-3.259629011154E-09
     3.138650000000E+05
E26 2023 07 19 15 00 00 1.676284591667E-04 1.111288838729E-11 0.000000000000E+00
     1.000000000000E+01 1.375625000000E+02 2.883334388165E-09 2.695760068336E+00
     6.537884473801E-06 1.554583432153E-04 2.091750502586E-06 5.440606878281E+03
     3.132000000000E+05-7.636845111847E-08 1.344365651437E+00 5.587935447693E-08
     9.927148704676E-01 3.114062500000E+02 2.394748455617E+00-5.641663569361E-09
     3.850160374634E-10 5.170000000000E+02 2.271000000000E+03
     3.120000000000E+00 0.000000000000E+00-4.190951585770E-09-4.889443516731E-09
     3.138650000000E+05
E07 2023 07 19 15 00 00-6.109295645729E-05-2.799538378895E-12 0.000000000000E+00
     1.000000000000E+01-1.278750000000E+02 2.836903882719E-09-1.874481425230E+00
    -5.830079317093E-06 3.107649972662E-04 1.074001193047E-05 5.440625185013E+03
     3.132000000000E+05-5.587935447693E-09-2.843724538759E+00 4.842877388000E-08
     9.594816185578E-01 1.096562500000E+02-6.150690680498E-01-5.309864034293E-09
     8.107480566251E-11 2.580000000000E+02 2.271000000000E+03
     3.120000000000E+00 0.000000000000E+00 5.355104804039E-09 0.000000000000E+00
     3.139400000000E+05
E26 2023 07 19 15 00 00 1.676294486970E-04 1.111288838729E-11 0.000000000000E+00
     1.000000000000E+01 1.375625000000E+02 2.883334388165E-09 2.695760068336E+00
     6.537884473801E-06 1.554583432153E-04 2.091750502586E-06 5.440606878281E+03
     3.132000000000E+05-7.636845111847E-08 1.344365651437E+00 5.587935447693E-08
     9.927148704676E-01 3.114062500000E+02 2.394748455617E+00-5.641663569361E-09
     3.850160374634E-10 2.580000000000E+02 2.271000000000E+03
     3.120000000000E+00 0.000000000000E+00-4.190951585770E-09 0.000000000000E+00
     3.139400000000E+05
E13 2023 07 19 15 00 00-1.932831946760E-05 0.000000000000E+00 0.000000000000E+00
     1.000000000000E+01 1.465625000000E+02 2.800116636097E-09-1.718910137747E+00
     6.943941116333E-06 1.246912870556E-04 3.110617399216E-06 5.440604099274E+03
     3.132000000000E+05-5.215406417847E-08 1.342963042156E+00-7.450580596924E-09
     9.993994273976E-01 2.946250000000E+02 1.336772344425E+00-5.525587305748E-09
     3.500145795122E-10 2.580000000000E+02 2.271000000000E+03
     3.120000000000E+00 0.000000000000E+00 5.587935447693E-09 0.000000000000E+00
     3.139400000000E+05
E08 2023 07 19 15 00 00-1.168739399873E-04-5.940137270954E-12 0.000000000000E+00
     1.000000000000E+01-1.350937500000E+02 2.651539018672E-09-1.528427363603E+00
    -6.159767508507E-06 2.890003379434E-04 1.131184399128E-05 5.440627311707E+03
     3.132000000000E+05-2.607703208923E-08-2.845206689822E+00-4.284083843231E-08
     9.653463035312E-01 1.037812500000E+02-1.651661458444E-01-5.210217026452E-09
     3.392998474863E-11 2.580000000000E+02 2.271000000000E+03
     3.120000000000E+00 0.000000000000E+00-3.492459654808E-09 0.000000000000E+00
     3.139400000000E+05
